type,lat,lon,address,city,state,zip
MC,39.561128,-95.123143,118 S 8TH,ATCHISON,KS,66002-2743
MC,39.713086,-94.872776,6018 LAKE AVE,ST. JOSEPH,MO,64506
MC,39.285925,-94.904437,3121 SOUTH 4TH ST. TRAFFICWAY,LEAVENWORTH,KS,66048-5005
MC,39.734198,-94.80056,3417 S BELT HWY,ST. JOSEPH,MO,64506
MC,39.725089,-94.789876,4219 S 169 HWY,ST. JOSEPH,MO,64503
MC,39.771307,-94.8031,3504 N BELT HWY,ST. JOSEPH,MO,64506
MC,39.754076,-94.768806,1310 S RIVERSIDE,ST. JOSEPH,MO,64507
MC,39.354102,-94.765288,2001 PRAIRIE VIEW RD,PLATTE CITY,MO,64079
MC,39.80192,-94.816156,601 N BELT HWY,ST. JOSEPH,MO,64506
MC,39.842535,-95.526639,1001 SOUTH FIRST STREET,HIAWATHA,KS,66434
MC,39.361963,-94.583306,1515 S 169 HWY,SMITHVILLE,MO,64089
MC,38.782834,-95.1858,522 AMES (STO),BALDWIN CITY,KS,66006
MC,38.924983,-95.261278,3241 IOWA,LAWRENCE,KS,66047
MC,38.942411,-95.245016,901 WEST 23RD STREET,LAWRENCE,KS,66046
MC,38.97268,-95.250362,1309 W 6TH ST,LAWRENCE,KS,66044-2220
MC,38.970916,-95.307647,4911 W 6TH ST,LAWRENCE,KS,66044
MC,38.580294,-95.268654,2214 PRINCETON CIRCLE DR,OTTAWA,KS,66067-4025
MC,39.019104,-95.13681,I-70 MILEMARKER 209,LAWRENCE,KS,66046
MC,38.813032,-94.889786,26240 W 174TH ST,GARDNER,KS,66030
MC,38.961939,-94.981982,34225 COMMERCE DR,DESOTO,KS,66018
MC,38.857762,-94.815065,1600 S. HAMILTON CIRCLE,OLATHE,KS,66061-5379
MC,38.883212,-94.835277,199 N PARKER ST,OLATHE,KS,66061-3139
MC,38.854292,-94.760599,15095 W 151ST ST,OLATHE,KS,66062
MC,38.884074,-94.780067,2200 E SANTE FE,OLATHE,KS,66062
MC,38.883968,-94.806449,618 SANTA FE ST,OLATHE,KS,66061
MC,38.909576,-94.772166,12091 STRANG LINE RD,OLATHE,KS,66062-5256
MC,38.88503,-94.723115,11850 W 135TH ST,OVERLAND PARK,KS,66210
MC,38.912265,-94.793657,17921 W 119TH ST,OLATHE,KS,66061
MC,39.00833,-94.844864,22315 W. 66TH STREET,SHAWNEE,KS,66226
MC,39.015591,-95.651006,2880 CALIFORNIA,TOPEKA,KS,66605-1713
MC,39.08674,-94.882395,606 S. 130TH,BONNER SPRINGS,KS,66012-9233
MC,38.971499,-94.772752,15920 W 87TH ST PKWY,LENEXA,KS,66219-9710
MC,38.570779,-94.857264,1610 E PEORIA,PAOLA,KS,66071
MC,39.0113,-95.688306,3117 S TOPEKA AVE,TOPEKA,KS,66611-2124
MC,38.998718,-95.693801,1301 SW 37TH ST (W*M #2131),TOPEKA,KS,66611
MC,39.00984,-94.774601,16210 W 65TH ST,SHAWNEE,KS,66217
MC,39.12807,-94.824552,10555 PARALLEL PARKWAY,KANSAS CITY,KS,66111
MC,39.116944,-94.754761,7530 STATE AVE,KANSAS CITY,KS,66112
MC,39.089112,-94.675966,4101 KANSAS AVE,KANSAS CITY,KS,66100
MC,39.116307,-94.672279,3725 STATE AVE.,KANSAS CITY,KS,66102-3830
MC,39.014115,-94.721995,11801 W 63RD ST,SHAWNEE,KS,66203-3337
MC,39.087276,-94.625401,605 SOUTH 7TH STREET,KANSAS CITY,KS,66105-2001
MC,39.052108,-94.680555,4427 SHAWNEE DR,KANSAS CITY,KS,66106
MC,38.971483,-94.74041,13330 W 87TH PKY,LENEXA,KS,66215-4536
MC,39.245598,-94.659765,6830 NW 83RD TER,KANSAS CITY,MO,64152
MC,39.115802,-94.630666,812 MINNESOTA,KANSAS CITY,KS,66101-2609
MC,38.992551,-94.713026,11005 W 75TH,SHAWNEE,KS,66214
MC,39.036038,-94.639317,5103 ROE AVE,ROELAND PARK,KS,66205
MC,39.02186,-94.663232,6767 JOHNSON DR,MISSION,KS,66202-2620
MC,38.955509,-94.730992,9501 WESTGATE ST.,LENEXA,KS,66215-1507
MC,38.99262,-94.695695,9405 W 75TH ST,OVERLAND PARK,KS,66204
MC,38.970839,-94.69776,9717 SANTA FE DR,OVERLAND PARK,KS,66212
MC,39.209964,-94.642091,5353 NW 64TH ST,KANSAS CITY,MO,64151-2452
MC,40.133504,-95.234095,809 STATE STREET,MOUND CITY,MO,64470
MC,37.921794,-95.40855,312 W MADISON,IOLA,KS,66749-3228
MC,37.813215,-94.705898,2224 S MAIN,FORT SCOTT,KS,66701-3024
MC,38.929631,-94.724216,11000 QUIVIRA RD,OVERLAND PARK,KS,66210-1290
MC,38.9426,-94.701631,10460 W 103RD ST,OVERLAND PARK,KS,66204
MC,38.620248,-94.691943,1409 W. AMITY,LOUISBURG,KS,66053
MC,38.855103,-94.679227,7926 W 151ST ST,OVERLAND PARK,KS,66223-2118
MC,38.884981,-94.686985,8750 W. 135TH ST.,OVERLAND PARK,KS,66223
MC,38.812905,-94.506855,1819 E NORTH AVE,BELTON,MO,64012-2128
MC,38.913816,-94.670142,7124 W 119TH ST,OVERLAND PARK,KS,66213-1116
MC,38.929624,-94.666442,10995 METCALF,OVERLAND PARK,KS,66210-2301
MC,38.913476,-94.639159,4600 W 119TH ST,LEAWOOD,KS,66209
MC,38.886104,-94.607369,13301 STATE LINE ROAD,KANSAS CITY,MO,64145
MC,38.812471,-94.474088,1120 W FOXWOOD DR,RAYMORE,MO,64083
MC,38.957066,-94.671914,9401 FO STER,OVERLAND PARK,KS,66212-2232
MC,38.942395,-94.607291,1300 WEST 103RD STREET,KANSAS CITY,MO,64114-4515
MC,38.921547,-94.584124,11290 HOLMES,KANSAS CITY,MO,64131
MC,38.899357,-94.532275,5100 HARRY TRUMAN DR,GRANDVIEW,MO,64030
MC,37.6668,-95.453803,101 N 14TH ST,CHANUTE,KS,66720
MC,39.26547,-94.576423,9551 N MCGEE STREET,KANSAS CITY,MO,64155
MC,39.246816,-94.582863,150 N W BARRY RD,KANSAS CITY,MO,64155
MC,39.20956,-94.576691,6300 N OAK TRAFFICWAY,GLADSTONE,MO,64118
MC,39.129988,-95.716446,3530 NW 46TH ST,TOPEKA,KS,66608
MC,38.256624,-94.351536,1007 FORT SCOTT ST,BUTLER,MO,64730-1206
MC,39.167392,-94.577147,4002 NORTH OAK TRAFFICWAY,KANSAS CITY,MO,64116-2609
MC,39.172803,-94.535856,4400 NE CHOUTEAU TRAFFICWAY,KANSAS CITY,MO,64117
MC,39.146268,-94.557002,2200 VERNON,NORTH KANSAS CITY,MO,64116-3252
MC,39.207438,-94.548064,6305 N. ANTIOCH ROAD,GLADSTONE,MO,64119
MC,39.200516,-94.499097,290 E 69 HWY,CLAYCOMO,MO,64119
MC,38.662588,-94.36609,2101 N. COMMERCIAL ST.,HARRISONVILLE,MO,64701-1248
MC,39.085255,-95.665814,2001 N TOPEKA,TOPEKA,KS,66608-1828
MC,39.043899,-95.676107,1100 KANSAS AVENUE,TOPEKA,KS,66612-1329
MC,39.015291,-95.715396,3072 SW 29TH,TOPEKA,KS,66614
MC,39.045398,-95.725125,1201 GAGE BLVD.,TOPEKA,KS,66604-1883
MC,39.013578,-95.762738,29TH & WANAMAKER,TOPEKA,KS,66614
MC,39.028862,-95.749222,5525 SW 21ST ST,TOPEKA,KS,66604-3647
MC,39.036936,-95.761126,1640 S.W. WANAMAKER,TOPEKA,KS,66604-3801
MC,38.852151,-94.377743,125 SOUTHWEST M150 HIGHWAY,LEES SUMMIT,MO,64081
MC,38.957178,-94.630009,3860 W 95TH,LEAWOOD,KS,66206
MC,38.924819,-94.524025,11001 HICKMAN MILLS DR,KANSAS CITY,MO,64134
MC,39.0849,-94.576153,2301 HOLMES (TRUMAN MED),KANSAS CITY,MO,64108
MC,39.095454,-94.551121,1421 PROSPECT,KANSAS CITY,MO,64127
MC,39.066975,-94.584981,3255 MAIN ST,KANSAS CITY,MO,64111-1925
MC,39.05897,-94.590256,3741 BROADWAY,KANSAS CITY,MO,64111-2505
MC,39.104929,-94.519726,5347 INDEPENDENCE,KANSAS CITY,MO,64124-3007
MC,39.050798,-94.611402,4215 RAINBOW,KANSAS CITY,KS,66103-3112
MC,39.129649,-94.503605,6701 FRONT STREET,KANSAS CITY,MO,64120-1322
MC,39.069168,-94.519988,3051 VAN BRUNT,KANSAS CITY,MO,64128-1877
MC,39.010975,-94.575242,6406 TROOST,KANSAS CITY,MO,64110
MC,39.031325,-94.503621,6996 EASTWOOD TRFY,KANSAS CITY,MO,64129
MC,38.988783,-94.668053,7700 METCALF AVE,OVERLAND PARK,KS,66204-2930
MC,38.985949,-94.607678,7887 STATE LINE ROAD,KANSAS CITY,MO,64114-1636
MC,38.97634,-94.595348,8326 WORNALL RD,KANSAS CITY,MO,64114
MC,38.975936,-94.555578,8304 HICKMAN MILL DR,KANSAS CITY,MO,64132
MC,38.953665,-94.525636,5620 E BANNI STER RD,KANSAS CITY,MO,64137
MC,39.209663,-96.304507,701 E 24 HWY,WAMEGO,KS,66545
MC,39.187501,-96.560671,815 NORTH 3RD STREET,MANHATTAN,KS,66502-5703
MC,39.190305,-96.610494,1011 WESTLOOP PLACE,MANHATTAN,KS,66502-2835
MC,39.028518,-96.836013,416 WEST SIXTH STREET,JUNCTION CITY,KS,66441-3051
MC,39.009117,-96.834461,1127 SOUTH WASHINGTON,JUNCTION CITY,KS,66441
MC,39.841604,-96.057013,101 N ST,SENECA,KS,66538
MC,40.278723,-96.746273,1220 N 6TH ST,BEATRICE,NE,68310-2019
MC,40.147578,-97.17164,1429 K STREET,FAIRBURY,NE,68352-1309
MC,38.470687,-96.18514,KS TURNPIKE MILEPOST 132,EMPORIA,KS,66801
MC,38.423746,-96.217657,2810 WEST 18TH,EMPORIA,KS,66801
MC,38.405344,-96.195878,1202 W 6TH AVE,EMPORIA,KS,66801-2563
MC,38.937691,-97.213334,2103 N BUCKEYE,ABILENE,KS,67410-1507
MC,37.836834,-94.358484,201 W AUSTIN BLVD,NEVADA,MO,64772-3343
MC,37.437856,-94.704263,3008 NORTH BROADWAY,PITTSBURG,KS,66762-2631
MC,37.223986,-95.711284,401 W MYRTLE,INDEPENDENCE,KS,67301-3321
MC,37.342827,-95.258812,301 N. 16TH,PARSONS,KS,67357
MC,37.396811,-94.704479,1125 S BROADWAY,PITTSBURG,KS,66762-5801
MC,37.49323,-94.297661,11 EAST 160 HIGHWAY,LAMAR,MO,64759
MC,37.008079,-94.736392,2800 MILITARY,BAXTER SPRINGS,KS,66713-2346
MC,37.167418,-94.831173,420 SOUTHEAST AVE,COLUMBUS,KS,66725
MC,36.888327,-94.878113,1131N MAIN ST,MIAMI,OK,74354
MC,37.005445,-94.552221,4436 HWY 43,JOPLIN,MO,64804
MC,37.084993,-94.530721,1531 W 7TH,JOPLIN,MO,64801-3023
MC,37.060119,-94.51423,2701 S MAIN ST,JOPLIN,MO,64804
MC,37.055515,-94.533469,3140 SOUTH MCCLELLAND,JOPLIN,MO,64804
MC,37.051979,-94.47908,3330 S RANGE LINE,JOPLIN,MO,64804
MC,37.078412,-94.477043,1123 RANGE LINE RD,JOPLIN,MO,64801
MC,37.140786,-94.475643,410 S MADISON,WEBB CITY,MO,64870-2018
MC,37.139789,-94.319054,2812 HAZEL AVE (STO),CARTHAGE,MO,64836
MC,37.179223,-94.324808,1111 W CENTRAL,CARTHAGE,MO,64836-1030
MC,36.860555,-94.383194,708 NEOSHO BLVD.,NEOSHO,MO,64850-2050
MC,37.033279,-95.619478,302 W 11TH,COFFEYVILLE,KS,67337-5905
MC,36.593777,-94.77282,209 W 3RD,GROVE,OK,74344-3203
MC,36.638308,-95.154177,111 E ILLINOIS,VINITA,OK,74301
MC,37.817727,-96.876941,2002 W. CENTRAL,EL DORADO,KS,67042-3201
MC,38.095167,-96.579679,KANSAS TURNPIKE MILEPOST 97,CASSODAY,KS,66842
MC,37.76622,-96.981376,KANSAS TURNPIKE MILE MARKER 67,EL DORADO,KS,67042
MC,37.679731,-96.984048,520 W 7TH,AUGUSTA,KS,67010
MC,37.693558,-97.136163,115 CENTRAL,ANDOVER,KS,67002
MC,38.057985,-97.345597,1321 MAIN,NEWTON,KS,67114-1915
MC,38.023297,-97.33862,1701 S. KANSAS AVENUE (W*M #2428),NEWTON,KS,67114
MC,37.79227,-97.329119,5900 AIR CAP DRIVE,PARK CITY,KS,67219-2105
MC,37.782061,-97.373451,2616 W 53RD ST,WICHITA,KS,67204
MC,37.747533,-97.245139,3527 N ROCK RD,WICHITA,KS,67226
MC,38.371385,-97.629284,2101 EAST KANSAS AVENUE,MCPHERSON,KS,67460
MC,39.56313,-97.657858,1420 LINCOLN ST,CONCORDIA,KS,66901-4841
MC,37.663631,-97.572344,20019 W KELLOGG DR,GODDARD,KS,67052
MC,37.722052,-97.462083,10321 W 21ST,WICHITA,KS,67212
MC,37.722629,-97.428233,7311 W 21ST ST,WICHITA,KS,67206
MC,37.691512,-97.4439,506 NORTH TYLER ROAD,WICHITA,KS,67212-3633
MC,37.723672,-97.363672,2261 N AMIDON,WICHITA,KS,67203
MC,37.70936,-97.390201,1421 N WEST ST.,WICHITA,KS,67212
MC,37.676953,-97.389001,456 S WEST,WICHITA,KS,67213-2108
MC,37.673364,-97.415982,6350 W KELLOGG,WICHITA,KS,67209-2330
MC,37.650044,-97.389642,2437 SW ST,WICHITA,KS,67217
MC,37.715974,-97.299363,1811 N HILLSIDE,WICHITA,KS,67214-2317
MC,37.684771,-97.352443,122 N. SENECA,WICHITA,KS,67208
MC,37.681863,-97.335882,411 S. BROADWAY,WICHITA,KS,67202-3909
MC,37.702099,-97.335238,1050 N BROADWAY,WICHITA,KS,67214-2907
MC,37.651214,-97.352176,2418 S SENECA AVE,WICHITA,KS,67216
MC,37.694987,-97.299505,545 N HILLSIDE,WICHITA,KS,67214
MC,37.649741,-97.332838,501 E PAWNEE S (WM #1099),WICHITA,KS,67207
MC,37.723535,-97.243641,8100 EAST 21ST COURT,WICHITA,KS,67226
MC,37.707113,-97.261566,1302 NORTH WOODLAWN,WICHITA,KS,67208-2647
MC,37.664004,-97.298349,1630 S HILLSIDE,WICHITA,KS,67211-4019
MC,37.60753,-97.333487,4810 SOUTH BROADWAY,WICHITA,KS,67216-3713
MC,37.63084,-97.316479,3430 S. HYDRAULIC,WICHITA,KS,67216
MC,37.694356,-97.270952,5606 E CENTRAL,WICHITA,KS,67208-4201
MC,37.678597,-97.199094,11989 E KELLOGG DR,WICHITA,KS,67207
MC,37.663553,-97.22678,1645 S WEBB RD,WICHITA,KS,67207
MC,37.665946,-97.245036,1219 S ROCK RD,WICHITA,KS,67207-3319
MC,37.549188,-97.243575,610 NORTH ROCK ROAD,DERBY,KS,67037
MC,37.552134,-97.272175,917 N. BALTIMORE,DERBY,KS,67037-1818
MC,37.152471,-98.039668,801 W MAIN,ANTHONY,KS,67003
MC,37.27472,-97.375631,1820 E 16TH ST.,WELLINGTON,KS,67152
MC,37.367372,-97.322312,MILEMARKER 25. 7 KANSAS TOLLWAY,BELLE PLAINE,KS,67013
MC,37.085057,-97.03967,2022 N SUMMIT ST,ARKANSAS CITY,KS,67005-3851
MC,37.227612,-96.995585,2130 PIKE RD,WINFIELD,KS,67156-5448
MC,36.729006,-97.067762,2124 N 14TH ST,PONCA CITY,OK,74601-1829
MC,36.812117,-97.337548,909 N 44TH,BLACKWELL,OK,74631
MC,37.648218,-98.095816,1123 HWY 54,KINGMAN,KS,67068
MC,38.014951,-97.939241,1006 S MAIN ST,SOUTH HUTCHINSON,KS,67505
MC,38.06459,-97.901079,1407 E 11TH AVE,HUTCHINSON,KS,67501-2750
MC,38.057581,-97.930707,20 E 4TH ST,HUTCHINSON,KS,67501-6933
MC,38.086161,-97.918314,603 E 30TH ST,HUTCHINSON,KS,67502-8432
MC,37.645099,-98.715624,1805 E 1ST ST,PRATT,KS,67124-2075
MC,36.797932,-98.668232,630 OKLAHOMA BLVD,ALVA,OK,73717-2748
MC,36.623188,-95.147877,WILL ROGERS TURNPIKE,VINITA,OK,74301
MC,36.746394,-95.934694,606 SE WASHINGTON BLVD,BARTLESVILLE,OK,74003
MC,36.740494,-95.932161,4000 GREEN COUNTRY (W*M #41),BARTLESVILLE,OK,74006
MC,36.7139,-95.935844,2441 SE WASHINGTON BLVD,BARTLESVILLE,OK,74006
MC,36.668023,-96.316119,1900 E. MAIN,PAWHUSKA,OK,74056
MC,38.82677,-97.624476,701 SOUTH BROADWAY,SALINA,KS,67401
MC,38.826728,-97.593588,1100 E CRAWFORD,SALINA,KS,67401
MC,38.802061,-97.613405,2236 PLANET,SALINA,KS,67401-7350
MC,38.878362,-97.610954,125 E DIAMOND DRIVE,SALINA,KS,67401
MC,38.361349,-98.784129,3307 10TH ST,GREAT BEND,KS,67530-3534
MC,38.865429,-98.85357,1435 S. FOSSIL,RUSSELL,KS,67665-3612
MC,39.016508,-99.889512,HWY 183 & I 70,WAKEENEY,KS,67672
MC,38.870004,-99.31828,1201 VINE,HAYS,KS,67601-3452
MC,38.895544,-99.316691,3406 VINE ST.,HAYS,KS,67601-1939
MC,37.752869,-100.023973,703 WEST WYATT EARP BLVD.,DODGE CITY,KS,67801-4249
MC,39.83897,-99.891136,211 WEST HOLME,NORTON,KS,67654
MC,39.366543,-101.056343,2000 SOUTH RANGE,COLBY,KS,67701
MC,39.331693,-101.72539,2325 ENTERPRISE ROAD,GOODLAND,KS,67735-9721
MC,39.296697,-102.278363,440 LINCOLN AVENUE SOUTH,BURLINGTON,CO,80807
MC,40.202071,-100.64424,501 N HWY 83,MCCOOK,NE,69001
MC,37.975444,-100.853168,1613 KANSAS PLAZA,GARDEN CITY,KS,67846-6234
MC,37.975437,-100.882998,1106 TAYLOR,GARDEN CITY,KS,67846-4017
MC,37.576103,-101.358468,105 WEST OKLAHOMA,ULYSSES,KS,67880
MC,37.031928,-100.921463,24 E PANCAKE,LIBERAL,KS,67901-4114
MC,37.058181,-100.922922,1800 N KANSAS,LIBERAL,KS,67901
MC,37.170311,-101.337109,612 EAST 11TH ST,HUGOTON,KS,67951
MC,38.667596,-90.616912,110 LONG RD,CHESTERFIELD,MO,63005
MC,38.59284,-90.586183,15901 MANCHESTER ROAD,ELLISVILLE,MO,63011
MC,38.713464,-90.677245,5950 S HWY 94,WELDON SPRING,MO,63304
MC,38.643544,-90.567013,1701 CLARKSON SQ,CHESTERFIELD,MO,63017-4978
MC,38.721029,-90.699666,4001 CRUSHER DRIVE,OFALLON,MO,63368
MC,38.592411,-90.553795,15204 MANCHESTER ROAD,BALLWIN,MO,63011-4601
MC,38.505955,-90.636354,12 HILLTOP VILLAGE CENTER DR,EUREKA,MO,63025-1185
MC,38.739573,-90.634437,6251 MID RIVERS MALL DR,ST. PETERS,MO,63304
MC,38.759045,-90.700872,2915 HWY K,OFALLON,MO,63366
MC,38.626068,-90.516479,101 LAMP & LANTERN VILLAGE,CHESTERFIELD,MO,63017
MC,38.68012,-90.501009,13559 OLIVE ST RD.,CHESTERFIELD,MO,63017-3112
MC,38.594661,-90.492291,14026 MANCHESTER ROAD,MANCHESTER,MO,63011
MC,38.506441,-90.678631,5699 FOX CREEK RD,EUREKA,MO,63205
MC,38.760122,-90.65332,998 KNAUST,COTTLEVILLE,MO,63304
MC,38.746498,-90.578537,24 HARVESTER SQUARE,ST. CHARLES,MO,63303
MC,38.801729,-90.699228,101 MCDONALD DR,OFALLON,MO,63366
MC,38.76891,-90.782521,885 ROBERT RAYMOND DR,LAKE ST. LOUIS,MO,63367
MC,38.794386,-90.623272,299 MID RIVERS MALL DR,ST. PETERS,MO,63376
MC,38.773042,-90.581787,905 JUNGERMANN RD,ST. PETERS,MO,63376
MC,38.790996,-90.605894,199 SPENCER RD,ST. PETERS,MO,63376
MC,38.787562,-90.661621,7890 MEXICO RD,ST. PETERS,MO,63376
MC,38.56686,-90.476976,13600 BIG BEND,VALLEY PARK,MO,63088-1447
MC,38.791718,-90.563393,3883 VETERANS MEMORIAL PKY,ST. PETERS,MO,63376
MC,38.484097,-90.759781,1620 WEST UNION,PACIFIC,MO,63069-1270
MC,38.537458,-90.49435,2109 SMIZER STATION RD,PEERLESS PARK,MO,63088
MC,38.418341,-90.390973,2005 RICHARDSON ROAD,ARNOLD,MO,63010
MC,38.405725,-90.376858,3996 JEFFCO BLVD,ARNOLD,MO,63010
MC,38.444969,-90.375929,130 ARNOLD CROSS ROADS,ARNOLD,MO,63010
MC,38.486092,-90.382858,13250 TESSON FERRY RD,ST. LOUIS,MO,63128
MC,38.500947,-90.333435,4407 LEMAY FERRY RD,MEHLVILLE,MO,63129
MC,38.471569,-90.305475,5537 TELEGRAPH RD,ST. LOUIS,MO,63129
MC,38.521984,-90.346413,5904 SOUTH LINDBERGH BLVD.,ST. LOUIS,MO,63123
MC,38.51571,-90.450104,501 OLD SMIZER MILL RD,FENTON,MO,63026
MC,38.496202,-90.299551,3282 TELEGRAPH RD.,ST. LOUIS,MO,63125
MC,38.287601,-90.404482,1701 HIGHWAY Z,PEVELY,MO,63070-1314
MC,38.540523,-90.470717,1867 BOWLES AVE,FENTON,MO,63026
MC,38.54598,-90.287693,4011 BAYLESS AVE,ST. LOUIS,MO,63125
MC,38.489708,-90.486494,100 OLD SUGAR CREEK ROAD,FENTON,MO,63026
MC,38.565636,-90.292522,7241 GRAVOIS AVENUE,ST. LOUIS,MO,63116
MC,38.58311,-90.31905,7259 WATSON RD,SHREWSBURY,MO,63119
MC,38.55704,-90.393754,9915 WATSON RD,CRESTWOOD,MO,63126
MC,38.446811,-90.218432,300 COLUMBIA CENTER,COLUMBIA,IL,62236-9803
MC,38.577091,-90.406013,350 SOUTH KIRKWOOD ROAD,KIRKWOOD,MO,63122-6143
MC,38.602058,-90.438545,12120 MANCHESTER ROAD,DES PERES,MO,63131-4309
MC,38.41267,-90.58325,4699 HWY W,BYRNES MILL,MO,63051
MC,38.606869,-90.374567,9815 MANCHE STER RD,ROCK HILL,MO,63119
MC,38.591175,-90.338371,4 S OLD ORCHARD RD,WEBSTER GROVES,MO,63119-3203
MC,38.671734,-90.437091,11521 OLIVE BLVD,CREVE COEUR,MO,63146
MC,38.700298,-90.443806,25 WESTPORT PLAZA DRIVE,ST. LOUIS,MO,63146
MC,38.714172,-90.456924,12680 DORSETT ROAD,MARYLAND HEIGHTS,MO,63043-2130
MC,38.248089,-90.558028,10229 STATE RTE 21,HILLSBORO,MO,63050
MC,38.211429,-90.40387,1150 GANNON DR,FESTUS,MO,63028
MC,38.215272,-90.388094,515 S TRUMAN,FESTUS,MO,63028
MC,38.141996,-90.576295,2020 ROCK RD,DE SOTO,MO,63020
MC,38.349934,-90.150143,736 N. MARKET,WATERLOO,IL,62298-1014
MC,38.445311,-90.997225,1010 E MAIN ST,UNION,MO,63084-1492
MC,38.36085,-90.97742,1450 NORTH MAIN,ST. CLAIR,MO,63077
MC,38.537994,-91.002029,1110 WASHINGTON SQ,WASHINGTON,MO,63090-5336
MC,38.218592,-91.162748,6 E.S. SERVICE ROAD,SULLIVAN,MO,63080
MC,38.344732,-91.493952,504 E LINCOLN,OWENSVILLE,MO,65066
MC,38.072039,-91.404473,301 AARON DR,CUBA,MO,65453
MC,38.814801,-90.952393,3160 S SERVICE ROAD E,FORISTELL,MO,63348
MC,38.823141,-91.139001,1003 NO HWY 47,WARRENTON,MO,63383-1369
MC,38.829522,-91.042519,647 W N SERVICE RD (STO SATELLITE),WRIGHT CITY,MO,63390
MC,38.779086,-90.530086,1890 ZUMBEHL RD,ST. CHARLES,MO,63303
MC,38.691914,-90.389954,10431 PAGE AVENUE,ST. LOUIS,MO,63132
MC,38.761888,-90.454873,3296 RIDER TRL S,EARTH CITY,MO,63045
MC,38.673648,-90.376421,9406 OLIVE STREET RD,OLIVETTE,MO,63132
MC,38.772582,-90.491476,1160 S 5TH ST,ST. CHARLES,MO,63301
MC,37.928731,-90.776453,800 E HIGH ST,POTOSI,MO,63664
MC,37.883235,-90.511481,411 N STATE STREET,DESLOGE,MO,63628
MC,37.788289,-90.422333,207 W KARSCH BLVD,FARMINGTON,MO,63640-2104
MC,37.770448,-90.446696,1700 W COLUMBIA ST,FARMINGTON,MO,63640
MC,37.967709,-90.049355,706 STE GENEVIEWE DRIVE,SAINTE GENEVIEVE,MO,63670
MC,38.19895,-89.993409,1422 S MAIN,RED BUD,IL,62278
MC,38.8125,-90.349027,1090 SHACKLEFORD,FLORISSANT,MO,63031-4367
MC,38.800558,-90.335059,15 FLORISSANT OAKS,FLORISSANT,MO,63031
MC,38.783662,-90.378734,6270 HOWDERSHELL RD,HAZELWOOD,MO,63042
MC,38.783391,-90.354951,7300 N LINDBERGH,HAZELWOOD,MO,63042-2033
MC,38.773857,-90.335791,8700 PERSHALL RD,HAZELWOOD,MO,63042
MC,38.810829,-90.296881,3165 N HWY 67,FLORISSANT,MO,63033
MC,38.757378,-90.430077,12499 NATURAL BRIDGE RD,BRIDGETON,MO,63044-2022
MC,38.767875,-90.280827,10873 W FLORISSANT AVE,FERGUSON,MO,63136
MC,38.819366,-90.513951,3701 ELM ST,ST. CHARLES,MO,63301
MC,38.796379,-90.231888,6863 PARKER RD,FLORISSANT,MO,63033-5312
MC,38.723333,-90.30448,1790 S FLORISSANT,COOL VALLEY,MO,63121
MC,38.73349,-90.390918,10805 SAINT CHARLES ROCK RD,ST. ANN,MO,63074
MC,38.73552,-90.278493,9131 W FLORISSANT,FERGUSON,MO,63136
MC,38.788208,-90.513725,740 S. DUCHESNE,ST. CHARLES,MO,63301
MC,38.686238,-90.357734,8960 PAGE AVENUE-OVERLAND PLAZA,OVERLAND,MO,63114-6108
MC,38.702238,-90.291318,3860 LUCAS & HUNT,NORTHWOODS,MO,63121
MC,38.772799,-90.220695,11111 BELLEFONTAINE RD,SPANISH LAKE,MO,63138
MC,38.727673,-90.243899,8983 JENNINGS STATION ROAD,JENNINGS,MO,63136
MC,38.676173,-90.250699,4979 NATURAL BRIDGE RD,ST. LOUIS,MO,63115
MC,38.889219,-90.174326,717 E BROADWAY,ALTON,IL,62002
MC,38.723599,-90.121434,1515 JOHNSON ROAD,GRANITE CITY,IL,62040-3831
MC,38.882791,-90.120674,102 NIAGARA AVE,EAST ALTON,IL,62024
MC,38.673931,-90.347048,8127 OLIVE STREET ROAD,UNIVERSITY CITY,MO,63130-2024
MC,38.700857,-90.145529,2045 MADISON,GRANITE CITY,IL,62040-4618
MC,38.91618,-90.151543,2400 HOMER ADAMS PKY,ALTON,IL,62002-5614
MC,38.946904,-90.190229,5511 GODFREY RD,GODFREY,IL,62035
MC,38.864878,-90.07749,1156 VAUGHN RD,WOOD RIVER,IL,62095
MC,37.624748,-90.647143,201 HWY 21 N,PILOT KNOB,MO,63650
MC,37.559803,-90.315803,1007 W MAIN STREET,FREDRICKTOWN,MO,63645
MC,38.493499,-91.858463,320 W MAIN,LINN,MO,65051
MC,38.805184,-90.769805,2144 WEST TERRA LANE,OFALLON,MO,63385
MC,38.80998,-90.86511,766 W PEARCE,WENTZVILLE,MO,63385
MC,38.901852,-91.458733,425 BOONESLICK RD,NEW FLORENCE,MO,63363
MC,38.006007,-91.620402,108 N OUTER RD,ST. JAMES,MO,65559
MC,38.636998,-90.195277,1119 N TUCKER,ST. LOUIS,MO,63101
MC,38.612495,-90.221972,1919 S JEFFERSON,ST. LOUIS,MO,63104
MC,38.639053,-90.243767,4006 LINDELL BLVD (WEST END),ST. LOUIS,MO,63108
MC,38.616074,-90.128191,588 NORTH 24TH STREET,EAST ST. LOUIS,IL,62205
MC,38.575406,-90.233327,4420 SOUTH BROADWAY,ST. LOUIS,MO,63111
MC,38.562944,-90.177504,1110 CAMP JACKSON RD,CAHOKIA,IL,62206-2230
MC,38.624458,-90.287483,1420 HAMPTON AVENUE,ST. LOUIS,MO,63139
MC,38.586227,-90.276009,4620 SOUTH KINGSHIGHWAY,ST. LOUIS,MO,63109
MC,38.626688,-90.335463,1595 S HANLEY,BRENTWOOD,MO,63144
MC,38.613164,-90.045836,I 64 & RT 157,CASEYVILLE,IL,62232
MC,38.592967,-90.293806,4200 HAMPTON AVE,ST. LOUIS,MO,63139
MC,38.602016,-90.326126,3635 BIG BEND BLVD,WEBSTER GROVES,MO,63143
MC,38.544727,-90.051891,7301 WESTFIELD PLZ,BELLEVILLE,IL,62222
MC,38.749863,-90.071674,#2 ENGINEER ROAD,PONTOON BEACH,IL,62040
MC,38.787804,-89.980415,6091 CENTER GROVE ROAD,EDWARDSVILLE,IL,62025
MC,38.901001,-90.057663,#2 PLAZA DRIVE,BETHALTO,IL,62010
MC,38.822015,-90.70025,1001 N MAIN ST,OFALLON,MO,63366
MC,39.332236,-91.181612,BUSS HWY 61 & CHAMP CLARK,BOWLING GREEN,MO,63334
MC,38.987524,-90.971402,199 E HWY 47,TROY,MO,63379
MC,39.607194,-90.813634,524 W. WASHINGTON,PITTSFIELD,IL,62363-1348
MC,39.110448,-90.319127,911 SOUTH STATE ST,JERSEYVILLE,IL,62052
MC,39.720565,-91.392519,4407 MCMASTERS AVE,HANNIBAL,MO,63401-2239
MC,39.14745,-91.889838,2783 S CLARK,MEXICO,MO,65265
MC,39.218371,-92.133267,500 E HWY 22,CENTRALIA,MO,65240
MC,38.941294,-91.943631,I 70 & HWY 54,KINGDOM CITY,MO,65262-0150
MC,38.840927,-91.950772,BUSINESS 54 SOUTH,FULTON,MO,65251
MC,38.963253,-92.289888,3206 CLARK LN,COLUMBIA,MO,65202-2414
MC,39.935587,-91.364523,3201 E BROADWAY,QUINCY,IL,62301-3711
MC,39.935958,-91.394709,1301 BROADWAY,QUINCY,IL,62301-2813
MC,40.40768,-91.396396,2010 MAIN STREET,KEOKUK,IA,52632-3224
MC,40.626246,-91.35581,3402 AVE L,FORT MADISON,IA,52627-3455
MC,39.747863,-92.467637,1504 N MISSOURI,MACON,MO,63552-1931
MC,39.447546,-92.420455,1301 HWY 24 E (W*M #40),MOBERLY,MO,65270
MC,39.436003,-92.433379,1501 N MORLEY,MOBERLY,MO,65270-3634
MC,40.184546,-92.571497,1401 SOUTH BALTIMORE,KIRKSVILLE,MO,63501-4532
MC,40.217198,-92.582101,2210 NORTH BALTIMORE,KIRKSVILLE,MO,63501
MC,39.775132,-93.070432,640 S MAIN ST,BROOKFIELD,MO,64628-2341
MC,40.7421,-92.868521,1000 NORTH 18TH STREET SUITE 1,CENTERVILLE,IA,52544
MC,40.074794,-93.596406,1861 EAST 9TH STREET,TRENTON,MO,64683
MC,37.145145,-90.700053,1020 S MAIN ST,PIEDMONT,MO,63957-0245
MC,37.63711,-91.536004,901 S MAIN,SALEM,MO,65560-1638
MC,37.71162,-89.89167,1302 S PERRYVILLE BLVD,PERRYVILLE,MO,63775
MC,37.926511,-89.804888,2208 STATE ST,CHESTER,IL,62233
MC,38.138898,-89.70304,IL RTE. 4 SPARTA SQUARE,SPARTA,IL,62286
MC,0.0,37.0108,"101 CURRENT RIVER EXPWY,,VAN BUREN,MO
MC,37.30567,-89.97632,315 PRESNELL,MARBLE HILL,MO,63764
MC,37.369278,-89.642748,2220 HWY 61 E,JACKSON,MO,63755-2909
MC,37.105002,-89.90391,MO RTE 25/91 (STO),ADVANCE,MO,63730
MC,37.302693,-89.583407,3419 WILLIAMS,CAPE GIRARDEAU,MO,63701
MC,37.312606,-89.545738,1925 BROADWAY,CAPE GIRARDEAU,MO,63701
MC,37.089245,-89.541568,6415 STHY 77,BENTON,MO,63736
MC,37.459972,-89.234592,510 E VIENNA,ANNA,IL,62906-2000
MC,36.803355,-89.971671,HIGHWAY 114 WEST,DEXTER,MO,63841
MC,36.858516,-89.583752,1301 S MAIN,SIKESTON,MO,63867
MC,36.891026,-89.536096,2605 E MALONE,MINER,MO,63801
MC,37.764613,-89.33506,1020 WALNUT ST,MURPHYSBORO,IL,62966
MC,37.788783,-89.325173,550 E INDUSTRIAL PARK RD #14 RT 13 & 1,MURPHYSBORO,IL,62966-9306
MC,37.729604,-89.24357,2102 W MAIN ST,CARBONDALE,IL,62901-2001
MC,37.7133,-89.224258,STUDENT UNION CENTER SIU CARBONDALE,CARBONDALE,IL,62901
MC,37.699344,-89.219827,1920 S ILLINOIS AVE,CARBONDALE,IL,62901
MC,37.735662,-89.187525,1396 E MAIN ST,CARBONDALE,IL,62901-3155
MC,37.745853,-89.073678,400 E PLAZA DR,CARTERVILLE,IL,62918
MC,36.572557,-89.970188,MISSOURI BUSINESS RT 25,MALDEN,MO,63863
MC,36.908437,-89.351404,100 W DRAKE RD,CHARLESTON,MO,63834
MC,38.080451,-89.396585,10 W WATER ST,PINCKNEYVILLE,IL,62274
MC,37.999004,-89.23664,825 S WASHINGTON ST,DU QUOIN,IL,62832
MC,36.7556,-90.411236,USHY 67 & CHERRY (W*M #19),POPLAR BLUFF,MO,63901
MC,36.736194,-90.397992,550 E HWY 53 AND 142,POPLAR BLUFF,MO,63901
MC,36.787517,-90.431569,2783 N. WESTWOOD BLVD.,POPLAR BLUFF,MO,63901-2346
MC,36.053247,-90.504546,1407 W KINGS HWY,PARAGOULD,AR,72450
MC,36.057774,-90.522891,2802 W KINGS HWY (WALMART #0036),PARAGOULD,AR,72450
MC,36.059562,-90.547295,4610 W KINGSHWY,PARAGOULD,AR,72450
MC,36.23624,-90.03342,1731 1ST ST,KENNETT,MO,63857-2517
MC,35.888843,-89.917805,3703 S DIVISION ST,BLYTHEVILLE,AR,72315
MC,35.845948,-90.681243,1910 EAST JOHNSON AVENUE,JONESBORO,AR,72401
MC,35.92825,-89.882036,1031 EAST MAIN STREET,BLYTHEVILLE,AR,72315-9802
MC,35.828059,-90.678235,2207 E NETTLETON AVE,JONESBORO,AR,72401-5246
MC,35.819508,-90.685145,1815 E HIGHLAND DR (W*M #45),JONESBORO,AR,72401
MC,36.229358,-89.726271,1618 HWY 84 EAST,HAYTI,MO,63851-9700
MC,35.821111,-90.704841,111 E. HIGHLAND,JONESBORO,AR,72401-5917
MC,35.697433,-89.979433,801 W KEISER ST,OSCEOLA,AR,72370-3507
MC,35.679034,-90.550041,500 INDUSTRIAL DRIVE,TRUMANN,AR,72472
MC,36.423862,-89.689605,200 HWY 62 E,PORTAGEVILLE,MO,63873
MC,36.063326,-89.392491,2650 LAKE RD (W*M #677),DYERSBURG,TN,38024
MC,36.061347,-89.394863,2496 LAKE RD,DYERSBURG,TN,38024-1604
MC,36.412968,-90.586709,201 N MISSOURI AVE,CORNING,AR,72422
MC,36.121773,-89.276236,600 A HIGHWAY 77 WEST,NEWBERN,TN,38059
MC,35.761877,-89.544862,838 HWY 51 N,RIPLEY,TN,38063
MC,36.414702,-89.071025,1108 MARSHALL AVE,UNION CITY,TN,38261-5528
MC,36.513225,-88.890356,104 NOLAN AVE,FULTON,KY,42041-8220
MC,36.631189,-90.825517,US HWY 160 & HWY Y,DONIPHAN,MO,63935
MC,36.250891,-90.961388,1504 HWY 67 S,POCAHONTAS,AR,72455-4001
MC,37.001521,-91.7061,US 60 & Y,MOUNTAIN VIEW,MO,65548
MC,36.523208,-91.534486,200 EAST WALNUT,THAYER,MO,65791
MC,36.317943,-91.486663,JUNCTION HWY 62 & 63,HARDY,AR,72542
MC,38.992919,-93.568746,I-70 & HWY 23,CONCORDIA,MO,64020
MC,39.077661,-93.738068,1865 HIGHWAY BLVD.,HIGGINSVILLE,MO,64037
MC,39.003224,-93.734225,"6676 HIGHWAY 13-BOX ""B""",HIGGINSVILLE,MO,64037
MC,39.107973,-93.208995,816 WEST COLLEGE,MARSHALL,MO,65340-2913
MC,39.370245,-93.485322,1001 N US HWY 65,CARROLLTON,MO,64633
MC,39.185776,-93.880205,1222 MAIN ST,LEXINGTON,MO,64067
MC,38.77152,-93.566022,601 N HWY 23,KNOB NOSTER,MO,65336-1546
MC,39.006781,-93.953325,201 W 40 HWY,ODESSA,MO,64076
MC,39.270966,-93.967879,498 SOUTH ST,RICHMOND,MO,64085
MC,38.771439,-93.734173,311 E YOUNG,WARRENSBURG,MO,64093-1209
MC,39.014092,-94.128184,201 SOUTH BROADWAY,OAK GROVE,MO,64075-9630
MC,39.028114,-94.271066,814 N HWY 7,BLUE SPRINGS,MO,64014-2430
MC,39.008768,-94.276599,920 W HWY 40,BLUE SPRINGS,MO,64015-4606
MC,39.033152,-94.305757,1515 N WOODS CHAPEL RD,BLUE SPRINGS,MO,64015-2783
MC,38.988282,-94.272664,3100 -I SW 7 HWY,BLUE SPRINGS,MO,64015
MC,39.032216,-94.356264,18910 E US HWY 40,INDEPENDENCE,MO,64055-5464
MC,39.047545,-94.365434,3921 BOLGER,INDEPENDENCE,MO,64055
MC,38.903563,-94.338875,1809 SOUTHEAST BLUE PKWY,LEES SUMMIT,MO,64063
MC,39.072524,-94.379856,16802 GUDGELL,INDEPENDENCE,MO,64055-2018
MC,38.790021,-94.261673,400 N HWY 7,PLEASANT HILL,MO,64080
MC,39.043186,-94.415592,4226 S NOLAND,INDEPENDENCE,MO,64055-4792
MC,38.921319,-94.359472,900 NE LANGSFORD RD,LEES SUMMIT,MO,64086
MC,39.04582,-94.441097,11801 E 40 HWY,INDEPENDENCE,MO,64055
MC,38.966776,-94.498926,7700 E 87TH,KANSAS CITY,MO,64138
MC,38.925167,-94.398849,901 CHIPMAN RD,LEES SUMMIT,MO,64063-2317
MC,39.075221,-94.413402,1401 S NOLAND ROAD,INDEPENDENCE,MO,64055
MC,39.117415,-94.382548,16235 E HWY 24,INDEPENDENCE,MO,64056-1520
MC,39.026476,-94.442625,5260 BLUE RIDGE BLVD,RAYTOWN,MO,64133-3061
MC,39.079828,-94.446573,1115 E. 23RD  STREET,INDEPENDENCE,MO,64052
MC,39.102465,-94.436517,11700 EAST HIGHWAY 24,INDEPENDENCE,MO,64054-1524
MC,38.997127,-94.478914,8909 E 350 HWY,RAYTOWN,MO,64133
MC,39.236915,-94.433457,918 S 291 HWY,LIBERTY,MO,64068
MC,39.243844,-94.462519,9851 NE BARRY RD,KANSAS CITY,MO,64157
MC,39.331832,-94.267904,2221 HAPPY LANE,EXCELSIORSPRING,MO,64024
MC,39.267838,-94.451056,9701 N ASH AVENUE,KANSAS CITY,MO,64068
MC,39.368577,-94.370716,500 W 92 HWY,KEARNEY,MO,64060
MC,38.366684,-93.749858,1607 EAST OHIO STREET,CLINTON,MO,64735
MC,38.708142,-93.265459,3101 W BROADWAY,SEDALIA,MO,65301-2116
MC,38.697295,-93.25021,1611 S LIMIT AVE,SEDALIA,MO,65301-6943
MC,39.752648,-94.216094,1515 N BOB F GRIFFIN RD,CAMERON,MO,64429
MC,40.264675,-94.011287,I-35 & US 136,BETHANY,MO,64424
MC,40.334493,-94.874333,1106 S MAIN ST,MARYVILLE,MO,64468-2602
MC,40.726708,-95.037104,1202 S 16TH ST,CLARINDA,IA,51632-2919
MC,40.404937,-95.556586,1304 HWY 136 W,ROCKPORT,MO,64482
MC,40.761948,-95.385553,504 S FREMONT,SHENANDOAH,IA,51601-1508
MC,40.663444,-95.859662,1512 S 11TH,NEBRASKA CITY,NE,68410
MC,39.774252,-93.553425,810 BUSINESS HIGHWAY 36 WEST,CHILLICOTHE,MO,64601
MC,37.862552,-94.017274,410 E HWY 54,EL DORADO SPRINGS,MO,64744
MC,38.264747,-93.3702,1890 COMMERCIAL DRIVE,WARSAW,MO,65355
MC,37.605832,-93.407363,903 S SPRINGFIELD AVE,BOLIVAR,MO,65613-2459
MC,37.093671,-93.806626,1089 E MOUNT VERNON BLVD,MT VERNON,MO,65712
MC,36.913636,-93.912719,833 E HWY 60,MONETT,MO,65708
MC,36.956801,-93.71891,1529 ELLIOTT,AURORA,MO,65605
MC,36.673135,-93.87262,93 MAIN ST,CASSVILLE,MO,65625
MC,36.443718,-94.116543,203 N CURTIS AVE,PEA RIDGE,AR,72751
MC,36.42101,-94.223772,3805 US 71 HIGHWAY,BENTONVILLE,AR,72758
MC,36.509178,-94.280388,101 COLLAGE RD,PINEVILLE,MO,64856
MC,36.37141,-94.220936,201 S WALTON BLVD,BENTONVILLE,AR,72712-5701
MC,36.368142,-94.224468,406 S WALTON (W*M #100),BENTONVILLE,AR,72712
MC,36.35567,-94.179787,1401 PHYLLIS ST,BENTONVILLE,AR,72712
MC,36.355616,-94.11696,203 W HUDSON RD,ROGERS,AR,72756
MC,36.335575,-94.181253,100 N 46TH ST,ROGERS,AR,72756
MC,36.358063,-94.284473,101 E.  CENTERTON BLVD.,CENTERTON,AR,72719
MC,36.263406,-94.482545,467 S. GENTRY BLVD.,GENTRY,AR,72734
MC,36.425741,-94.785774,404 MAIN STREET,JAY,OK,74346
MC,36.334008,-94.1273,903 W WALNUT,ROGERS,AR,72756-3539
MC,36.282924,-94.152216,2601 PLEASANT CROSSING DR.,ROGERS,AR,72758
MC,36.279465,-94.151523,4208 PLEASANT CROSSING BLVD.,ROGERS,AR,72745
MC,36.183175,-94.512615,2901 HWY 412 E (W*M #4),SILOAM SPRINGS,AR,72761-8673
MC,36.253881,-94.146076,503 W MONROE,LOWELL,AR,72745
MC,36.175706,-94.556062,1400 US HWY 412,SILOAM SPRINGS,AR,72761
MC,37.124196,-93.466368,895 USHY 60 E,REPUBLIC,MO,65738
MC,36.18034,-94.139369,520 S THOMPSON,SPRINGDALE,AR,72764
MC,36.391258,-93.737883,148 E VAN BUREN,EUREKA SPRINGS,AR,72632
MC,38.549508,-92.149552,815 EASTLAND DR,JEFFERSON CITY,MO,65101
MC,38.579066,-92.195242,1425 MISSOURI BLVD,JEFFERSON CITY,MO,65109
MC,38.553214,-92.199612,1918 JEFFERSON ST,JEFFERSON CITY,MO,65109-2062
MC,38.580051,-92.218807,724 W STADIUM BLVD (W*M #29),JEFFERSON CITY,MO,65109
MC,38.580698,-92.23513,3124 10 MILE RD.,JEFFERSON CITY,MO,65109-1728
MC,37.944651,-91.785956,1106 KINGSHIGHWAY,ROLLA,MO,65401-2923
MC,37.981526,-91.719311,HIGHWAY 44 AND EXIT 189,ROLLA,MO,65401
MC,38.655451,-92.113771,123 NORTHSTAR DRIVE,HOLTS SUMMIT,MO,65043
MC,38.773635,-92.254027,602 E. BROADWAY,ASHLAND,MO,65010
MC,38.909548,-92.332665,500 NIFONG BLVD E,COLUMBIA,MO,65201-3781
MC,38.954945,-92.296658,415 CONLEY RD (WALMART #159),COLUMBIA,MO,65201
MC,38.965145,-92.334905,205 BUSINESS LOOP,COLUMBIA,MO,65201
MC,38.992773,-92.324298,1012 SMILEY LN,COLUMBIA,MO,65202
MC,38.960894,-92.37196,415 STADIUM BLVD,COLUMBIA,MO,65201
MC,38.937393,-92.744391,490 AMERICANA,BOONVILLE,MO,65233-9756
MC,38.630401,-92.579023,1002 W BUCHANAN,CALIFORNIA,MO,65018
MC,38.34648,-92.581927,401 S AURORA,ELDON,MO,65026
MC,38.431174,-92.85828,JCT 70 RTE 5,VERSAILLES,MO,65084
MC,38.194994,-92.643293,1726 BAGNELL DAM BLVD.,LAKE OZARK,MO,65049
MC,38.153946,-92.608988,4072 HIGHWAY 54,OSAGE BEACH,MO,65065
MC,38.112733,-92.688491,HWY 54 & KK W,OSAGE BEACH,MO,65065
MC,0.0,38.011197,"192 E,,CAMDENTON,MO
MC,37.808475,-92.224626,310 ICHORD AVE,WAYNESVILLE,MO,65583
MC,37.822438,-92.139393,381 HIGHWAY Z,ST. ROBERT,MO,65584
MC,37.67431,-92.65491,850 SOUTH JEFFERSON AVENUE,LEBANON,MO,65536-3638
MC,37.644672,-92.668335,HWY 44 AND MORGAN,LEBANON,MO,65536
MC,39.150339,-92.689888,515 N CLEVELAND,FAYETTE,MO,65248
MC,37.313637,-91.959364,1432 S SAM HOUSTON BLVD,HOUSTON,MO,65483-2130
MC,36.742259,-91.871356,1320 PORTER WAGNER BLVD,WEST PLAINS,MO,65775
MC,36.986056,-91.976543,602 S. HARRIS,WILLOW SPRINGS,MO,65793
MC,36.714592,-91.874793,1315 PREACHER ROE,WEST PLAINS,MO,65775-2939
MC,37.145732,-92.262052,1820 N MAIN,MOUNTAIN GROVE,MO,65711
MC,37.639941,-93.103608,608 S ASH,BUFFALO,MO,65622
MC,37.340542,-92.926707,1323 SPUR DR,MARSHFIELD,MO,65706-2311
MC,37.272903,-93.109992,333 E EVERGREEN RD,STRAFFORD,MO,65757
MC,37.156073,-92.78539,1105 WEST STEEL ST,SEYMOUR,MO,65746
MC,37.236661,-93.260582,2220 N. GLENSTONE ROAD,SPRINGFIELD,MO,65803-4648
MC,37.209266,-93.228757,3250 E CHESTNUT EXPY,SPRINGFIELD,MO,65804
MC,37.247775,-93.311387,2811 N KANSAS EXPWY,SPRINGFIELD,MO,65803
MC,37.240559,-93.304031,1114 WEST KEARNEY,SPRINGFIELD,MO,65803-1238
MC,37.292224,-93.409646,HIGHWAY 160 & HUNT ROAD,WILLARD,MO,65803
MC,37.211678,-93.349551,3510 W CHESTNUT EXPY,SPRINGFIELD,MO,65802-5505
MC,37.182774,-93.29677,501 WEST SUNSHINE,SPRINGFIELD,MO,65807-2435
MC,37.160615,-93.315511,1717 W BATTLEFIELD,SPRINGFIELD,MO,65807
MC,37.138454,-93.363425,4022 A WEST REPUBLIC ROAD,SPRINGFIELD,MO,65619
MC,37.204142,-93.261414,528 S GLENSTONE,SPRINGFIELD,MO,65802
MC,37.20832,-93.275696,234 S NATIONAL AVENUE,SPRINGFIELD,MO,65802
MC,37.160049,-93.266744,1607 E BATTLEFIELD RD,SPRINGFIELD,MO,65804-3705
MC,37.139912,-93.296805,4101 S CAMPBELL,SPRINGFIELD,MO,65807-5309
MC,37.14021,-93.277426,1221 E KINGSLEY,SPRINGFIELD,MO,65807
MC,37.180647,-93.246288,2512 E SUNSHINE,SPRINGFIELD,MO,65804-1825
MC,37.157675,-93.227582,3320 E BATTLEFIELD RD,SPRINGFIELD,MO,65804-4049
MC,37.142715,-93.256128,2115 E INDEPENDENCE,SPRINGFIELD,MO,65804
MC,37.04419,-93.300792,HWY 14 & HWY 160,NIXA,MO,65714-0812
MC,37.023633,-93.232761,401 N 21ST ST,OZARK,MO,65721
MC,36.696523,-93.365805,RT 13 & 76,BRANSON WEST,MO,65737
MC,36.672812,-93.227736,1209 BRANSON HILLS PARKWAY,BRANSON,MO,65616
MC,36.663377,-93.239852,1361 STHY 248,BRANSON,MO,65616-8620
MC,36.640856,-93.261841,2214 W HWY 76,BRANSON,MO,65616-1602
MC,36.644671,-93.222904,515 W MAIN,BRANSON,MO,65616-9100
MC,36.960732,-92.672216,HWY 5 & HWY 14,AVA,MO,65608-9718
MC,37.109569,-93.057507,409 SOUTH MILL STREET,ROGERSVILLE,MO,65742
MC,36.694772,-93.122583,15548 FORREST LN,FORSYTH,MO,65653
MC,36.355355,-92.340768,65 WAL-MART DRIVE (W*M #11),MOUNTAIN HOME,AR,72653
MC,36.350432,-92.369582,1019 HWY 62E,MOUNTAIN HOME,AR,72653-3215
MC,36.288062,-92.480538,7403 HWY 62 W,GASSVILLE,AR,72634
MC,36.609226,-93.233871,113 GAGE DRIVE,HOLLISTER,MO,65672
MC,36.378522,-93.587411,HWY 62 W,BERRYVILLE,AR,72616
MC,36.2448,-93.11632,1314 N MAIN,HARRISON,AR,72601
MC,36.113653,-93.706952,14243 US HIGHWAY 412,HUNTSVILLE,AR,72740
MC,36.241092,-91.596029,HWY 62- 412 (W*M #160),ASH FLAT,AR,72513
MC,36.175804,-94.181461,4600 W SUNSET,SPRINGDALE,AR,72764
MC,36.175515,-94.217104,1089 E. HENRI DE TONTI BLVD.,TONTITOWN,AR,72770
MC,36.166202,-94.146317,2004 S PLEASANT (W*M #54),SPRINGDALE,AR,72762
MC,36.167355,-94.118015,1260 E ROBINSON AVE,SPRINGDALE,AR,72764
BK,39.041671,-94.572881,1102 East 47th Street,Kansas City,MO,64110-1871
BK,39.064968,-94.5856,3441 Main Street,Kansas City,MO,64111-1924
BK,39.034477,-94.53494,4351 Blue Parkway,Kansas City,MO,64130
BK,39.054862,-94.611864,4004 Rainbow Boulevard,Kansas City,KS,66103-2919
BK,38.997851,-94.593216,340 West 72nd Street,Kansas City,MO,64114-5744
BK,39.09764,-94.58231,1350 Walnut St, , ,,Kansas City,MO,64106-2914
BK,39.039792,-94.640036,4811 Roe Boulevard,Roeland Park,KS,66205-1136
BK,39.022217,-94.665216,6880 Johnson Drive,Mission,KS,66202-2310
BK,38.99257,-94.667716,7530 Metcalf Avenue,Overland Park,KS,66204-2926
BK,39.1452,-94.5585,1911 Armour Road,N Kansas City,MO,64116-3275
BK,39.202585,-94.548693,6001 North East Antioch Road,Gladstone,MO,64119-1832
BK,39.244319,-94.575975,8238 N. Oak Traffic Way,Kansas City,MO,64118-1265
BK,39.15191,-94.47738,Burger King @ Ameristar Casino, 3200 N. Ameristar Dr.,Kansas City,MO,64161
BK,39.116845,-94.669172,3610 State Avenue,Kansas City,KS,66102-3829
BK,38.926363,-94.686329,11174 Antioch,Overland Park,KS,66210-2420
BK,38.88379,-94.72379,11810 W 135th St, , ,,Overland Park,KS,66221-9399
BK,38.956954,-94.723637,9460 Quivira Road,Lenexa,KS,66215-3910
BK,38.881672,-94.667913,13680 Metcalf,Overland Park,KS,66223-1206
BK,38.911939,-94.766779,11919 Strangline Road,Olathe,KS,66062-5287
BK,38.883757,-94.784371,2004 East Santa Fe,Olathe,KS,66062-1690
BK,38.9391,-94.79765,10560 S Ridgeview Rd, , ,,Olathe,KS,66061-6440
BK,38.925789,-94.583189,700 E Red Bridge Road,Kansas City,MO,64131-3672
BK,38.8895,-94.524,12921 South Highway 71,Grandview,MO,64030-2533
BK,38.933467,-94.507988,10517 Blue Ridge Blvd.,Kansas City,MO,64134
BK,38.8131,-94.5012,7809 East 171st Street,Belton,MO,64012-5326
BK,38.987681,-94.465679,9945 East 350 Highway,Raytown,MO,64133-6580
BK,39.045103,-94.414177,14001 East 42nd Street,Independence,MO,64055-4761
BK,39.08023,-94.440848,11500 E 23rd Street, , ,,Independence,MO,64052-3630
BK,39.077896,-94.38135,16703 East 23 Road,Independence,MO,64055-1924
BK,38.982768,-94.36433,850 N.E. Woods Chapel Road,Lee's Summit,MO,64064
BK,39.04773,-94.35175,19501 E 39th St S,Independence,MO,64057-2356
BK,38.937152,-94.378506,1399 N.E. Douglas Street,Lee's Summit,MO,64086-9810
BK,39.119289,-94.375754,16901 24 Highway,Independence,MO,64056
BK,39.2449,-94.4608,9650 N. E Barry Road,Kansas City,MO,64157-1086
BK,39.302907,-94.718035,Kansas City International Airport, Terminal B, Mezzanine Level,Kansas City,MO,64195
TB,39.041528,-94.570237,1310 E 47th St,Kansas City,MO,64110
TB,39.006827,-94.556219,6607 Prospect Ave,Kansas City,MO,64132
TB,39.068391,-94.583957,123 E Linwood,Kansas City,MO,64111
TB,39.05544,-94.61199,3948 Rainbow Blvd,Kansas City,KS,66103
TB,39.03717,-94.63995,5004 Roe Blvd.,Roeland Park,KS,66205
TB,38.979177,-94.594817,8215 Wornall Rd,Kansas City,MO,64114
TB,39.086941,-94.625661,635 S 7th St,Kansas City,KS,66105
TB,39.02201,-94.66177,6591 Johnson,Mission,KS,66202
TB,39.050693,-94.47538,4017 Blue Ridge Cut-Off,Kansas City,MO,64133
TB,39.10534,-94.521502,5200 Independence Ave,Kansas City,MO,64124
TB,38.996567,-94.47715,9021 E. Highway 350,Raytown,MO,64133
TB,39.052429,-94.680766,4401 Shawnee Drive,Kansas City,KS,66106
TB,38.9536,-94.5337,4900 East Bannister Road,Kansas City,MO,64137
TB,39.01517,-94.68836,8800 Shawnee Mission Pkwy,Shawnee Mission,KS,66202
TB,38.98185,-94.673858,8120 Santa Fe,Overland Park,KS,66204
TB,38.94195,-94.60708,1313 West 103rd Street,Kansas City,MO,64114
TB,39.080395,-94.449043,11020 E 23rd St S,Independence,MO,64052
TB,39.048874,-94.434173,12323 E 40 Hwy,Independence,MO,64055
TB,38.993,-94.7028,10107 W. 75th Street,Overland Park,KS,66204
TB,39.13009,-94.50623,6401 E Front St C/O 6501 E Front St,Kansas City,MO,64120
TB,38.953438,-94.667569,9690 Metcalf Ave.,Overland Park,KS,66212
TB,39.143662,-94.56888,1040 Armour Rd,North Kansas City,MO,64116
TB,39.11653,-94.67135,3651 State Avenue,Kansas City,KS,66102
TB,39.1028,-94.4497,10750 E US Highway 24,Sugar Creek,MO,64054
TB,39.01511,-94.72574,12014 Shawnee Mission Pkwy.,Shawnee Mission,KS,66216
TB,38.927129,-94.730036,12208 College Blvd,Overland Park,KS,66210
TB,38.913147,-94.6698,7100 W 119th St,Overland Park,KS,66213
TB,38.953785,-94.723578,9600 Quivira Rd.,Lenexa,KS,66215
TB,38.883743,-94.723087,11870 W 135th Street,Overland Park,KS,66221
TB,38.883682,-94.683254,8559 West 135th St.,Overland Park,KS,66223
TB,38.911632,-94.760588,12075 S. Blackbob Rd.,Olathe,KS,66062
TB,38.969587,-94.727803,12291 W 87th St,Lenexa,KS,66215
TB,38.971217,-94.772431,16130 W 87th Street,Lenexa,KS,66219
TB,38.883753,-94.778415,16600 W 135th St,Olathe,KS,66062
TB,38.854781,-94.680777,8000 W. 151st St.,Overland Park,KS,66223
TB,38.88962,-94.60761,13111 State Line Road,Kansas City,MO,64145
TB,38.883494,-94.799243,1117 E. Santa Fe St.,Olathe,KS,66061
TB,38.854378,-94.813693,14880 South Harrison,Olathe,KS,66061
TB,38.890439,-94.525764,12918 S US Highway 71,Grandview,MO,64030
TB,38.812927,-94.501145,7901 East 171st Street,Belton,MO,64012
TB,38.924271,-94.400067,615 Libby Lane,Lees Summit,MO,64063
TB,38.852689,-94.380984,3701 SW Hollywood Drive,Lees Summit,MO,64082
TB,38.92289,-94.35993,605 NE Highway 291,Lees Summit,MO,64086
TB,39.187677,-94.546085,2825 NE Vivion Road,Kansas City,MO,64119
TB,39.21301,-94.57627,6321 N Oak Trafficway,Gladstone,MO,64118
TB,39.201126,-94.496336,455 E Hwy 69,Claycomo,MO,64119
TB,39.21053,-94.64667,6350 North Lucerne,Kansas City,MO,64151
TB,39.24653,-94.57457,430 NE Barry Rd,Kansas City,MO,64155
TB,39.26625,-94.57605,9571 N McGee St,Kansas City,MO,64155
TB,39.24681,-94.65543,6350 NW Barry Road,Kansas City,MO,64154
TB,39.243633,-94.467246,9301 NE Highway 152,Kansas City,MO,64158
TB,39.238116,-94.436653,315 S 291 Hwy,Liberty,MO,64068
TB,39.077114,-94.414036,1300-A S. Noland Rd,Independence,MO,64055
TB,39.116537,-94.748417,7341 State Ave,Kansas City,KS,66112
KFC,39.041687,-94.573116,4700 Troost Ave,Kansas City,MO,64110
KFC,39.006827,-94.556219,6607 Prospect Ave,Kansas City,MO,64132
KFC,38.974353,-94.594878,420 West 85th,Kansas City,MO,64114
KFC,39.086941,-94.625661,635 S 7th St,Kansas City,KS,66105
KFC,39.106257,-94.54579,3014 Independence Ave,Kansas City,MO,64124
KFC,38.993267,-94.666708,7006 W. 75th St.,Overland Park,KS,66204
KFC,39.052429,-94.680766,4401 Shawnee Drive,Kansas City,KS,66106
KFC,38.989033,-94.465349,9924 Highway 350 East,Raytown,MO,64133
KFC,39.116884,-94.668431,3522 State Ave,Kansas City,KS,66102
KFC,39.01514,-94.72013,11560 W 63rd St,Shawnee,KS,66203
KFC,39.043945,-94.415406,4210 S Noland Rd,Independence,MO,64055
KFC,39.076074,-94.414195,1340 S. Noland Rd.,Independence,MO,64055
KFC,38.9075,-94.52516,11920 Blue Ridge Extension,Grandview,MO,64030
KFC,38.954982,-94.723858,9564 Quivira Rd,Lenexa,KS,66215
KFC,38.913147,-94.6698,7100 W 119th St,Overland Park,KS,66213
KFC,39.11633,-94.753103,7517 State Ave.,Kansas City,KS,66112
KFC,39.199685,-94.548433,5813 Antioch Road,Gladstone,MO,64119
KFC,38.883491,-94.686051,8669 W. 135th Street,Overland Park,KS,66223
KFC,39.121427,-94.368119,17837 East 24 Highway,Independence,MO,64056
KFC,39.223821,-94.651168,7106 NW Prairie View Rd.,Kansas City,MO,64151
KFC,38.91851,-94.36085,300 Rice Road,Lees Summit,MO,64086
KFC,39.03101,-94.30474,1236 NW Woods Chapel Road,Blue Springs,MO,64015
KFC,38.884693,-94.760724,13455 Black Bob Road,Olathe,KS,66062
KFC,39.2463,-94.588,755 Northwest Barry Road,Kansas City,MO,64155
KFC,39.026279,-94.854012,5650 Hedge Lane Terrace,Shawnee,KS,66226
KFC,39.2449,-94.465126,9551 W 83rd Terrace,Kansas City,MO,64158
KFC,38.81266,-94.49366,8400 Clint Drive,Belton,MO,64012
KFC,39.019608,-94.272428,211 Highway 7 South,Blue Springs,MO,64014
KFC,38.88344,-94.80676,619 East Santa Fe,Olathe,KS,66061
KFC,39.09771,-94.88235,14 North 130th,Bonner Springs,KS,66012
KFC,38.963898,-94.985684,34429 West 91st Street,De Soto,KS,66018
KFC,39.015022,-94.127796,201 SE 4th Street,Oak Grove,MO,64075
KFC,38.81081,-94.91362,651 East Main Street,Gardner,KS,66030
KFC,39.296632,-94.909087,2024 S. Fourth,Leavenworth,KS,66048
KFC,39.33781,-94.25002,1744 West Jesse James Road,Excelsior Springs,MO,64024
KFC,38.66475,-94.3672,1606 Highway 291 North,Harrisonville,MO,64701
KFC,38.572153,-94.858387,201 South Angela Street,Paola,KS,66071
KFC,39.266832,-93.961035,806 Slumber Lane,Richmond,MO,64085
KFC,38.94302,-95.24622,658 W. 23rd Street,Lawrence,KS,66046
KFC,38.96983,-95.30736,701 Wakarusa,Lawrence,KS,66049
KFC,39.557057,-95.136651,1401 U.S. Highway 59,Atchison,KS,66002
KFC,38.772,-93.737,217 Sparks Avenue,Warrensburg,MO,64093
KFC,38.58229,-95.267595,2121 Princeton,Ottawa,KS,66067
KFC,39.75918,-94.803452,813 S. Belt Highway,Saint Joseph,MO,64506
KFC,39.75358,-94.23107,708 Baldwin,Cameron,MO,64429
KFC,38.99344,-93.56892,108 NW Fourth Street,Concordia,MO,64020
KFC,39.81571,-94.81555,5332 North Belt Highway,Saint Joseph,MO,64506
KFC,39.08121,-95.66663,1812 North Topeka Avenue,Topeka,KS,66608
KFC,39.01043,-95.68797,3211 Topeka Avenue,Topeka,KS,66611
KFC,39.029722,-95.725214,3920 W. 21st Street,Topeka,KS,66604
KFC,37.815543,-94.70527,2101 S. Main Street,Fort Scott,KS,66701
KFC,37.83705,-94.350547,105 S. Osage Blvd.,Nevada,MO,64772
LJS,38.974353,-94.594878,420 West 85th,Kansas City,MO,64114
LJS,38.996567,-94.47715,9021 E. Highway 350,Raytown,MO,64133
LJS,38.95369,-94.53445,4800 E Bannister Road,Kansas City,MO,64137
LJS,39.04958,-94.447216,11211 E 40 Hwy,Independence,MO,64055
LJS,39.01523,-94.70149,9900 W 63rd Street,Merriam,KS,66203
LJS,39.187677,-94.546085,2825 NE Vivion Road,Kansas City,MO,64119
LJS,38.883491,-94.686051,8669 W. 135th Street,Overland Park,KS,66223
LJS,38.910801,-94.767741,11990 S Strang Line Road,Olathe,KS,66062
LJS,38.92473,-94.35949,707 NE Rice Road,Lees Summit,MO,64063
LJS,39.245407,-94.659718,6860 NW 83rd Terrace,Kansas City,MO,64152
LJS,38.813935,-94.51687,1112  E. North Avenue,Belton,MO,64012
LJS,39.242606,-94.440816,1175 Elizabeth St.,Liberty,MO,64068
LJS,39.027093,-94.271708,806 N 7 Hwy,Blue Springs,MO,64015
LJS,38.883433,-94.807241,607 E Santa Fe St.,Olathe,KS,66061
LJS,39.286233,-94.905312,3201 S 4th Street,Leavenworth,KS,66048
LJS,38.942574,-95.253047,1503 W 23rd Street,Lawrence,KS,66046
LJS,39.56088,-95.12086,626 Main Street,Atchison,KS,66002
LJS,39.713199,-94.871751,6104 Lake Ave.,Saint Joseph,MO,64504
LJS,39.781902,-94.802842,1701 N. Belt Hwy,Saint Joseph,MO,64506
LJS,39.08871,-95.66491,2117 N. W. Topeka Boulevard,Topeka,KS,66608
LJS,39.057003,-95.693105,1500 SW 6th Avenue,Topeka,KS,66606
LJS,39.01659,-95.743604,2746 Fairlawn Rd.,Topeka,KS,66614
LJS,38.703928,-93.250553,922 S Limit Street,Sedalia,MO,65301
LJS,38.14054,-93.718051,303 South Hwy 13,Lowry City,MO,64763
LJS,38.405087,-96.204575,1928 W. 6th Street,Emporia,KS,66801
LJS,38.94129,-92.74327,490 Colonel Sanders Lane,Boonville,MO,65233
LJS,39.18677,-96.55858,701 E. Third Place,Manhattan,KS,66502
LJS,37.437766,-94.70479,3014 N Broadway St.,Pittsburg,KS,66762
LJS,39.435641,-92.43321,1515 N. Morley Street,Moberly,MO,65270
LJS,38.96541,-92.34187,206 Business Loop 70 W,Columbia,MO,65203
LJS,39.02815,-96.837734,527 W 6th Street,Junction City,KS,66441
LJS,38.13811,-92.63569,4840 Hwy 54,Osage Beach,MO,65065
LJS,37.178721,-94.324766,1118 W. Central Ave.,Carthage,MO,64836
LJS,38.58165,-92.20951,2220 Missouri Blvd,Jefferson City,MO,65109
LJS,40.176008,-92.572121,2200 S Baltimore,Kirksville,MO,63501
LJS,37.084716,-94.531674,1627 W 7th Street,Joplin,MO,64801
LJS,37.670847,-92.651334,1087 S Jefferson Avenue,Lebanon,MO,65536
LJS,37.241031,-93.306734,1313 W Kearney Street,Springfield,MO,65803
LJS,37.236872,-93.260879,2236 N Glenstone Ave,Springfield,MO,65803
LJS,37.176285,-93.294958,2110 S Campbell Avenue,Springfield,MO,65807
LJS,36.886783,-94.877289,1024 N. Main St.,Miami,OK,74354
LJS,37.03296,-95.61933,314 W 11th Street,Coffeyville,KS,67337
LJS,37.81808,-96.87516,1825 W Central Ave.,El Dorado,KS,67042
LJS,36.83894,-94.39334,3210 S Highway 71,Neosho,MO,64850
LJS,41.15513,-95.919138,608 Galvin Road,Bellevue,NE,68005
LJS,38.827247,-97.595325,1019 E. Crawford St.,Salina,KS,67401
LJS,38.05831,-97.34518,1414 N Main,Newton,KS,67114
LJS,40.834711,-96.606161,2221 N. 86th Street,Lincoln,NE,68505
LJS,40.778599,-96.706063,3400 S 10th,Lincoln,NE,68502
LJS,41.228033,-95.849546,603 32nd Avenue,Council Bluffs,IA,51501
LJS,41.1764,-96.040106,8220 Giles Road,La Vista,NE,68128
LJS,41.261723,-95.872175,1905 W Broadway,Council Bluffs,IA,51501
LJS,41.212677,-95.986679,4820 L Street,Omaha,NE,68117
LJS,41.00526,-92.4241,925 Church Street,Ottumwa,IA,52501
LJS,41.208339,-96.081243,5023 S 108th Street,Omaha,NE,68137
LJS,41.259801,-95.978928,4440 Dodge Street,Omaha,NE,68131
LJS,38.369943,-97.634717,2118 East Kansas,McPherson,KS,67460
LJS,37.677392,-97.244704,547 S. Rock Road,Wichita,KS,67207
LJS,37.66481,-97.28744,4206 E Harry Street,Wichita,KS,67218
LJS,37.72295,-97.36485,2090 W 21st Street,Wichita,KS,67203
